[{"OBJECT_NAME":"CREW DRAGON 12","OBJECT_ID":"2026-031A","EPOCH":"2026-03-10T03:48:27.801504","MEAN_MOTION":15.485572,"ECCENTRICITY":0.00079716,"INCLINATION":51.6324,"RA_OF_ASC_NODE":70.0375,"ARG_OF_PERICENTER":176.2903,"MEAN_ANOMALY":183.8146,"EPHEMERIS_TYPE":0,"CLASSIFICATION_TYPE":"U","NORAD_CAT_ID":67796,"ELEMENT_SET_NO":999,"REV_AT_EPOCH":55629,"BSTAR":0.00017625562,"MEAN_MOTION_DOT":9.13e-5,"MEAN_MOTION_DDOT":0}]
